STARLINK-3503           
1 51865U 22022P   26068.10288994 -.00000066  00000+0  13922-4 0  9999
2 51865  53.2178  11.7545 0001382  99.4768 260.6381 15.08836556223025
LEMUR-2-STELLA          
1 60533U 24149BT  26068.72657350  .00013685  00000+0  85776-3 0  9992
2 60533  97.6764 150.9122 0001299  95.1117 265.0260 15.09464064 85488
